{
  "type": "FeatureCollection",
  "features": [
    {
      "type": "Feature",
      "properties": {
        "norad_id": 30726,
        "name": "FENGYUN 1C DEB",
        "group": "fengyun-1c-debris",
        "lat": 29.594635930694235,
        "lon": -22.324668908876017,
        "alt_km": 908.6075146614385,
        "timestamp": "2025-12-07T09:35:10.068749+00:00",
        "meta_object_name": "FENGYUN 1C DEB",
        "meta_object_id": "1999-025ASL",
        "meta_epoch": "2025-12-06T23:21:28.107936",
        "meta_mean_motion": 14.09264154,
        "meta_eccentricity": 0.00780701,
        "meta_inclination": 99.2677,
        "meta_ra_of_asc_node": 342.5581,
        "meta_arg_of_pericenter": 242.4239,
        "meta_mean_anomaly": 146.2561,
        "meta_ephemeris_type": 0,
        "meta_classification_type": "U",
        "meta_norad_cat_id": 30726,
        "meta_element_set_no": 999,
        "meta_rev_at_epoch": 95902,
        "meta_bstar": 0.0017983686,
        "meta_mean_motion_dot": 3.173e-05,
        "meta_mean_motion_ddot": 0,
        "tle_line1": "1 30726U 99025ASL 25340.97324199  .00003173  00000+0  17984-2 0  9995",
        "tle_line2": "2 30726  99.2677 342.5581 0078070 242.4239 146.2561 14.09264154959022"
      },
      "geometry": {
        "type": "Point",
        "coordinates": [
          -22.324668908876017,
          29.594635930694235
        ]
      }
    },
    {
      "type": "Feature",
      "properties": {
        "norad_id": 30728,
        "name": "FENGYUN 1C DEB",
        "group": "fengyun-1c-debris",
        "lat": 24.425987903012356,
        "lon": -15.66071822078907,
        "alt_km": 790.7976701781299,
        "timestamp": "2025-12-07T09:35:10.068759+00:00",
        "meta_object_name": "FENGYUN 1C DEB",
        "meta_object_id": "1999-025ASN",
        "meta_epoch": "2025-12-06T23:20:55.349376",
        "meta_mean_motion": 14.23470966,
        "meta_eccentricity": 0.00995379,
        "meta_inclination": 98.5294,
        "meta_ra_of_asc_node": 347.8339,
        "meta_arg_of_pericenter": 98.5857,
        "meta_mean_anomaly": 262.6615,
        "meta_ephemeris_type": 0,
        "meta_classification_type": "U",
        "meta_norad_cat_id": 30728,
        "meta_element_set_no": 999,
        "meta_rev_at_epoch": 97607,
        "meta_bstar": 0.00012390725,
        "meta_mean_motion_dot": 2.55e-06,
        "meta_mean_motion_ddot": 0,
        "tle_line1": "1 30728U 99025ASN 25340.97286284  .00000255  00000+0  12391-3 0  9995",
        "tle_line2": "2 30728  98.5294 347.8339 0099537  98.5857 262.6615 14.23470966976070"
      },
      "geometry": {
        "type": "Point",
        "coordinates": [
          -15.66071822078907,
          24.425987903012356
        ]
      }
    },
    {
      "type": "Feature",
      "properties": {
        "norad_id": 30730,
        "name": "FENGYUN 1C DEB",
        "group": "fengyun-1c-debris",
        "lat": -72.41328876379877,
        "lon": 49.19795522642596,
        "alt_km": 857.0517802789636,
        "timestamp": "2025-12-07T09:35:10.068769+00:00",
        "meta_object_name": "FENGYUN 1C DEB",
        "meta_object_id": "1999-025ASQ",
        "meta_epoch": "2025-12-06T14:25:18.344064",
        "meta_mean_motion": 14.25434884,
        "meta_eccentricity": 0.00787021,
        "meta_inclination": 98.618,
        "meta_ra_of_asc_node": 19.8285,
        "meta_arg_of_pericenter": 67.1639,
        "meta_mean_anomaly": 83.5294,
        "meta_ephemeris_type": 0,
        "meta_classification_type": "U",
        "meta_norad_cat_id": 30730,
        "meta_element_set_no": 999,
        "meta_rev_at_epoch": 96918,
        "meta_bstar": 0.0017323816,
        "meta_mean_motion_dot": 4.183e-05,
        "meta_mean_motion_ddot": 0,
        "tle_line1": "1 30730U 99025ASQ 25340.60090676  .00004183  00000+0  17324-2 0  9990",
        "tle_line2": "2 30730  98.6180  19.8285 0078702  67.1639  83.5294 14.25434884969183"
      },
      "geometry": {
        "type": "Point",
        "coordinates": [
          49.19795522642596,
          -72.41328876379877
        ]
      }
    },
    {
      "type": "Feature",
      "properties": {
        "norad_id": 30731,
        "name": "FENGYUN 1C DEB",
        "group": "fengyun-1c-debris",
        "lat": 37.961184243325825,
        "lon": -112.399853473867,
        "alt_km": 755.1837224068831,
        "timestamp": "2025-12-07T09:35:10.068779+00:00",
        "meta_object_name": "FENGYUN 1C DEB",
        "meta_object_id": "1999-025ASR",
        "meta_epoch": "2025-12-06T11:54:26.121024",
        "meta_mean_motion": 14.41632369,
        "meta_eccentricity": 0.00143329,
        "meta_inclination": 98.8601,
        "meta_ra_of_asc_node": 59.6735,
        "meta_arg_of_pericenter": 263.2957,
        "meta_mean_anomaly": 232.9586,
        "meta_ephemeris_type": 0,
        "meta_classification_type": "U",
        "meta_norad_cat_id": 30731,
        "meta_element_set_no": 999,
        "meta_rev_at_epoch": 97266,
        "meta_bstar": 0.0038244809,
        "meta_mean_motion_dot": 0.00012442,
        "meta_mean_motion_ddot": 0,
        "tle_line1": "1 30731U 99025ASR 25340.49613566  .00012442  00000+0  38245-2 0  9999",
        "tle_line2": "2 30731  98.8601  59.6735 0014332 263.2957 232.9586 14.41632369972664"
      },
      "geometry": {
        "type": "Point",
        "coordinates": [
          -112.399853473867,
          37.961184243325825
        ]
      }
    },
    {
      "type": "Feature",
      "properties": {
        "norad_id": 30732,
        "name": "FENGYUN 1C DEB",
        "group": "fengyun-1c-debris",
        "lat": -74.5667332469375,
        "lon": 147.52645562376858,
        "alt_km": 812.1888134566943,
        "timestamp": "2025-12-07T09:35:10.068789+00:00",
        "meta_object_name": "FENGYUN 1C DEB",
        "meta_object_id": "1999-025ASS",
        "meta_epoch": "2025-12-06T19:32:06.300384",
        "meta_mean_motion": 14.03888714,
        "meta_eccentricity": 0.0123698,
        "meta_inclination": 98.8044,
        "meta_ra_of_asc_node": 1.1114,
        "meta_arg_of_pericenter": 225.6666,
        "meta_mean_anomaly": 313.5326,
        "meta_ephemeris_type": 0,
        "meta_classification_type": "U",
        "meta_norad_cat_id": 30732,
        "meta_element_set_no": 999,
        "meta_rev_at_epoch": 96108,
        "meta_bstar": 0.00079635286,
        "meta_mean_motion_dot": 1.302e-05,
        "meta_mean_motion_ddot": 0,
        "tle_line1": "1 30732U 99025ASS 25340.81396181  .00001302  00000+0  79635-3 0  9999",
        "tle_line2": "2 30732  98.8044   1.1114 0123698 225.6666 313.5326 14.03888714961081"
      },
      "geometry": {
        "type": "Point",
        "coordinates": [
          147.52645562376858,
          -74.5667332469375
        ]
      }
    },
    {
      "type": "Feature",
      "properties": {
        "norad_id": 30735,
        "name": "FENGYUN 1C DEB",
        "group": "fengyun-1c-debris",
        "lat": 75.61574598209206,
        "lon": -90.53906199291932,
        "alt_km": 844.7067612617047,
        "timestamp": "2025-12-07T09:35:10.068799+00:00",
        "meta_object_name": "FENGYUN 1C DEB",
        "meta_object_id": "1999-025ASV",
        "meta_epoch": "2025-12-06T18:31:45.392160",
        "meta_mean_motion": 14.23898101,
        "meta_eccentricity": 0.0059241,
        "meta_inclination": 98.7646,
        "meta_ra_of_asc_node": 51.8551,
        "meta_arg_of_pericenter": 262.2185,
        "meta_mean_anomaly": 225.3437,
        "meta_ephemeris_type": 0,
        "meta_classification_type": "U",
        "meta_norad_cat_id": 30735,
        "meta_element_set_no": 999,
        "meta_rev_at_epoch": 96663,
        "meta_bstar": 0.0028924457,
        "meta_mean_motion_dot": 6.71e-05,
        "meta_mean_motion_ddot": 0,
        "tle_line1": "1 30735U 99025ASV 25340.77205315  .00006710  00000+0  28924-2 0  9997",
        "tle_line2": "2 30735  98.7646  51.8551 0059241 262.2185 225.3437 14.23898101966635"
      },
      "geometry": {
        "type": "Point",
        "coordinates": [
          -90.53906199291932,
          75.61574598209206
        ]
      }
    },
    {
      "type": "Feature",
      "properties": {
        "norad_id": 30736,
        "name": "FENGYUN 1C DEB",
        "group": "fengyun-1c-debris",
        "lat": 67.28292912862584,
        "lon": -138.46854072077176,
        "alt_km": 868.1875816787697,
        "timestamp": "2025-12-07T09:35:10.068810+00:00",
        "meta_object_name": "FENGYUN 1C DEB",
        "meta_object_id": "1999-025ASW",
        "meta_epoch": "2025-12-06T16:01:27.387840",
        "meta_mean_motion": 13.61611053,
        "meta_eccentricity": 0.02800041,
        "meta_inclination": 98.7811,
        "meta_ra_of_asc_node": 19.2067,
        "meta_arg_of_pericenter": 70.187,
        "meta_mean_anomaly": 53.7062,
        "meta_ephemeris_type": 0,
        "meta_classification_type": "U",
        "meta_norad_cat_id": 30736,
        "meta_element_set_no": 999,
        "meta_rev_at_epoch": 92770,
        "meta_bstar": 0.0030781788,
        "meta_mean_motion_dot": 3.026e-05,
        "meta_mean_motion_ddot": 0,
        "tle_line1": "1 30736U 99025ASW 25340.66767810  .00003026  00000+0  30782-2 0  9991",
        "tle_line2": "2 30736  98.7811  19.2067 0280004  70.1870  53.7062 13.61611053927702"
      },
      "geometry": {
        "type": "Point",
        "coordinates": [
          -138.46854072077176,
          67.28292912862584
        ]
      }
    }
  ]
}